*******************************************************************************
Ephemeris / PORT_LOGIN Mon Oct  5 17:12:39 2015 Pasadena, USA    / Horizons    
*******************************************************************************
Target body name: Phobos (401)                    {source: MAR097}
Center body name: Mars (499)                      {source: MAR097}
Center-site name: BODY CENTER
*******************************************************************************
Start time      : A.D. 1900-Jan-04 00:00:00.0000 CT 
Stop  time      : A.D. 2099-Dec-31 00:00:00.0000 CT 
Step-size       : 14400 minutes
*******************************************************************************
Center geodetic : 0.00000000,0.00000000,0.0000000 {E-lon(deg),Lat(deg),Alt(km)}
Center cylindric: 0.00000000,0.00000000,0.0000000 {E-lon(deg),Dxy(km),Dz(km)}
Center pole/equ : IAU_MARS                        {East-longitude -}
Center radii    : 3396.2 x 3396.2 x 3376.2 km     {Equator, meridian, pole}    
Output units    : AU-D                                                         
Output format   : 03
Output type     : GEOMETRIC cartesian states
Coordinate systm: Body Mean Equator and Node of Date                           
*******************************************************************************
JDCT 
   X     Y     Z
   VX    VY    VZ
   LT    RG    RR
*******************************************************************************
$$SOE
2472063.500000000 = A.D. 2056-Mar-06 00:00:00.0000 (CT)
   5.775892180407391E-05  2.329093929973336E-05  5.010958466418198E-07
  -4.485597649396286E-04  1.158373596934716E-03 -2.107663475621372E-05
   3.596999122069813E-07  6.228010917203429E-05  1.703143017862987E-05
2472073.500000000 = A.D. 2056-Mar-16 00:00:00.0000 (CT)
  -5.426048925833065E-05  3.315584706985806E-05 -1.156430472339838E-06
  -6.319595700232440E-04 -1.039427413613677E-03  6.263070740673137E-06
   3.673178905127257E-07  6.359912122750273E-05 -2.828713784567752E-06
2472083.500000000 = A.D. 2056-Mar-26 00:00:00.0000 (CT)
   6.487043879664164E-06 -6.168285552507646E-05  9.879284368612609E-07
   1.238803949763403E-03  1.444192508220045E-04  1.249440444073905E-05
   3.582605931667865E-07  6.203089880551871E-05 -1.385878073963790E-05
2472093.500000000 = A.D. 2056-Apr-05 00:00:00.0000 (CT)
   4.226597915686440E-05  4.600193487671469E-05 -2.670328565230776E-07
  -8.994883686744926E-04  8.510811366825196E-04 -2.290141478494008E-05
   3.608040916208596E-07  6.247129191105669E-05  1.824418509005160E-05
2472103.500000000 = A.D. 2056-Apr-15 00:00:00.0000 (CT)
  -6.314625437724649E-05  7.109986128972820E-06 -7.152615984456415E-07
  -1.299086904812600E-04 -1.210357076489821E-03  1.858060054029849E-05
   3.670301204393527E-07  6.354929538385393E-05 -6.540824686314874E-06
2472113.500000000 = A.D. 2056-Apr-25 00:00:00.0000 (CT)
   3.246453247749532E-05 -5.268587049348429E-05  1.164562856891594E-06
   1.058486054689313E-03  6.649243455975699E-04 -2.593165825868981E-06
   3.574809325462036E-07  6.189590475375732E-05 -1.085504716276155E-05
2472123.500000000 = A.D. 2056-May-05 00:00:00.0000 (CT)
   1.851404946700730E-05  5.986699209208956E-05 -9.239535836374130E-07
  -1.173828085748744E-03  3.822591006348892E-04 -1.489070867555025E-05
   3.619587174706849E-07  6.267120917970087E-05  1.860742194750626E-05
2472133.500000000 = A.D. 2056-May-15 00:00:00.0000 (CT)
  -6.014530041553608E-05 -2.024281810100664E-05  2.696565757195724E-08
   3.983000437996381E-04 -1.151978542132756E-03  2.304080200968411E-05
   3.665170314163026E-07  6.346045677342872E-05 -1.002139642781963E-05
2472143.500000000 = A.D. 2056-May-25 00:00:00.0000 (CT)
   5.201119255069062E-05 -3.335850638710845E-05  8.360615017998223E-07
   6.698716756844783E-04  1.057565327867387E-03 -1.660803105648043E-05
   3.568996073578342E-07  6.179525141755281E-05 -7.312218353207471E-06
2472153.500000000 = A.D. 2056-Jun-04 00:00:00.0000 (CT)
  -8.893716909431274E-06  6.222871371907646E-05 -1.185617651803491E-06
  -1.220758287629533E-03 -1.561461384638647E-04 -6.149776954097719E-07
   3.631196891446708E-07  6.287222519373835E-05  1.814846541707602E-05
2472163.500000000 = A.D. 2056-Jun-14 00:00:00.0000 (CT)
  -4.581186035470574E-05 -4.372885059912947E-05  7.530599937718820E-07
   8.529520194081736E-04 -8.743256607729191E-04  1.769279221859431E-05
   3.658008337055976E-07  6.333645098388657E-05 -1.308470652516152E-05
2472173.500000000 = A.D. 2056-Jun-24 00:00:00.0000 (CT)
   6.127916826867798E-05 -7.481586502781157E-06  1.449991521684706E-07
   1.485281214368409E-04  1.244114179119439E-03 -2.338425890545655E-05
   3.565479475267178E-07  6.173436340526788E-05 -3.396144228440034E-06
2472183.500000000 = A.D. 2056-Jul-04 00:00:00.0000 (CT)
  -3.469102630921322E-05  5.265654315060521E-05 -9.383602308266607E-07
  -1.033726448032906E-03 -6.605932394194074E-04  1.376134709280175E-05
   3.642268881558823E-07  6.306393075983188E-05  1.686482074783583E-05
2472193.500000000 = A.D. 2056-Jul-14 00:00:00.0000 (CT)
  -2.285345965814505E-05 -5.889129180435485E-05  1.153981251336479E-06
   1.147246412857333E-03 -4.283706363559620E-04  4.765074875661649E-06
   3.649010940015497E-07  6.318066588332678E-05 -1.560209357215634E-05
2472203.500000000 = A.D. 2056-Jul-24 00:00:00.0000 (CT)
   5.843486218486437E-05  1.985299826176004E-05 -6.046117241530786E-07
  -4.027179808201780E-04  1.186964790384036E-03 -1.997172045498318E-05
   3.564547827645926E-07  6.171823242675152E-05  7.147863163713982E-07
2472213.500000000 = A.D. 2056-Aug-03 00:00:00.0000 (CT)
  -5.394480325739691E-05  3.300038400608169E-05 -2.902672299965176E-07
  -6.510391997452705E-04 -1.035639496526366E-03  2.207783939219115E-05
   3.652371031296041E-07  6.323884406037892E-05  1.482114365811309E-05
2472223.500000000 = A.D. 2056-Aug-13 00:00:00.0000 (CT)
   4.375603943541897E-06 -6.283856515006681E-05  1.059380996696195E-06
   1.223778547829595E-03  1.025361715075484E-04 -1.017807685284787E-05
   3.638555219701381E-07  6.299963069801355E-05 -1.744832632559913E-05
2472233.500000000 = A.D. 2056-Aug-23 00:00:00.0000 (CT)
   4.403797553044179E-05  4.326866866203107E-05 -1.083135127762710E-06
  -8.747437445620302E-04  8.969867708559528E-04 -7.878239278765265E-06
   3.566210309292748E-07  6.174701740415818E-05  4.826353955185244E-06
2472243.500000000 = A.D. 2056-Sep-02 00:00:00.0000 (CT)
  -6.299586383187760E-05  7.021797885639778E-06  4.804098809875130E-07
  -1.470776082634926E-04 -1.211524947994838E-03  2.082289697519619E-05
   3.660974970277413E-07  6.338781664582706E-05  1.211906689269851E-05
2472253.500000000 = A.D. 2056-Sep-12 00:00:00.0000 (CT)
   3.067784001803977E-05 -5.479742949072147E-05  5.103183835816341E-07
   1.065813599965303E-03  6.177251222011963E-04 -2.074496378219539E-05
   3.627167401260228E-07  6.280245673391810E-05 -1.852596724034170E-05
2472263.500000000 = A.D. 2056-Sep-22 00:00:00.0000 (CT)
   2.092371157664211E-05  5.816227422689763E-05 -1.082639175652776E-06
  -1.174531280021958E-03  4.319124756523829E-04  7.603106473566602E-06
   3.570477543027759E-07  6.182090226591655E-05  8.690049309740666E-06
2472273.500000000 = A.D. 2056-Oct-02 00:00:00.0000 (CT)
  -6.014612150860063E-05 -2.034714735208931E-05  1.045231903918698E-06
   3.821362171502333E-04 -1.156755711932198E-03  1.064446976251915E-05
   3.667638246463223E-07  6.350318769658698E-05  8.878192282099523E-06
2472283.500000000 = A.D. 2056-Oct-12 00:00:00.0000 (CT)
   5.100630119390966E-05 -3.628709602248114E-05 -2.541025522718017E-07
   7.010087511427880E-04  1.017810537042289E-03 -2.233881150674598E-05
   3.615336389672472E-07  6.259760911836544E-05 -1.872034503357345E-05
2472293.500000000 = A.D. 2056-Oct-22 00:00:00.0000 (CT)
  -6.350747277180149E-06  6.160613764501731E-05 -6.038673206533969E-07
  -1.243683904087205E-03 -1.158172295550134E-04  1.963878540242116E-05
   3.577099271669058E-07  6.193555394324317E-05  1.213213918923863E-05
2472303.500000000 = A.D. 2056-Nov-01 00:00:00.0000 (CT)
  -4.595099736311523E-05 -4.392754064464102E-05  1.161078311007736E-06
   8.369943876467883E-04 -8.832246658094939E-04 -4.040555224041947E-06
   3.672099394221689E-07  6.358043007558147E-05  5.229110664490986E-06
2472313.500000000 = A.D. 2056-Nov-11 00:00:00.0000 (CT)
   6.143950060683305E-05 -1.084412196435441E-05 -9.032401731253371E-07
   1.975078430605230E-04  1.224094794236192E-03 -1.416575321838849E-05
   3.603674943573881E-07  6.239569743824633E-05 -1.805661239355380E-05
2472323.500000000 = A.D. 2056-Nov-21 00:00:00.0000 (CT)
  -3.243495368716760E-05  5.293813983646522E-05  1.425699135654788E-07
  -1.070144286207005E-03 -6.381859961817614E-04  2.301206466184085E-05
   3.585705425579236E-07  6.208456487899475E-05  1.496316651405577E-05
2472333.500000000 = A.D. 2056-Dec-01 00:00:00.0000 (CT)
  -2.310459059875697E-05 -5.926727598950436E-05  7.810334503003808E-07
   1.132417930633250E-03 -4.431691740750047E-04 -1.696218559698213E-05
   3.674174925588558E-07  6.361636678719352E-05  1.385320257671283E-06
2472343.500000000 = A.D. 2056-Dec-11 00:00:00.0000 (CT)
   5.993513142782232E-05  1.661708360209809E-05 -1.156346177543197E-06
  -3.481926248371980E-04  1.194088280462421E-03  2.322084803678064E-07
   3.592764495362732E-07  6.220678888346328E-05 -1.650904151954963E-05
2472353.500000000 = A.D. 2056-Dec-21 00:00:00.0000 (CT)
  -5.223643781596163E-05  3.386682700174980E-05  8.287884778701262E-07
  -6.900314430809114E-04 -1.033397732689565E-03  1.636799350347214E-05
   3.595831543012688E-07  6.225989316733787E-05  1.703260126270446E-05
2472363.500000000 = A.D. 2056-Dec-31 00:00:00.0000 (CT)
   4.090079199464219E-06 -6.347715348521586E-05  6.865537228934108E-08
   1.213335494706899E-03  8.068045478250031E-05 -2.258195128883596E-05
   3.673739283876364E-07  6.360882388477000E-05 -2.519740267114185E-06
